FALCONSAT-10            
1 58291U 23174AM  26068.70247784  .00006748  00000+0  25969-3 0  9991
2 58291  97.3865 145.7938 0008932 169.5942 190.5483 15.26670596129582
STARLINK-33963          
1 63968U 25099S   26067.67090274  .00035994  00000+0  13112-2 0  9992
2 63968  42.9946 181.6926 0000985 305.2913  54.7846 15.27577129 47186
